{
    "links": {
        "self": "http://www.neowsapp.com/rest/v1/neo/3405149?api_key=iIulBulltgU6a56xZRHN4H3l9WmuAYTsLGpBGhQ2"
    },
    "id": "3405149",
    "neo_reference_id": "3405149",
    "name": "(2008 EB8)",
    "designation": "2008 EB8",
    "nasa_jpl_url": "http://ssd.jpl.nasa.gov/sbdb.cgi?sstr=3405149",
    "absolute_magnitude_h": 22.6,
    "estimated_diameter": {
        "kilometers": {
            "estimated_diameter_min": 0.0802703167,
            "estimated_diameter_max": 0.1794898848
        },
        "meters": {
            "estimated_diameter_min": 80.2703167283,
            "estimated_diameter_max": 179.4898847799
        },
        "miles": {
            "estimated_diameter_min": 0.049877647,
            "estimated_diameter_max": 0.1115298092
        },
        "feet": {
            "estimated_diameter_min": 263.3540659348,
            "estimated_diameter_max": 588.8775935812
        }
    },
    "is_potentially_hazardous_asteroid": false,
    "close_approach_data": [
        {
            "close_approach_date": "2008-02-27",
            "close_approach_date_full": "2008-Feb-27 17:37",
            "epoch_date_close_approach": 1204133820000,
            "relative_velocity": {
                "kilometers_per_second": "12.0422189385",
                "kilometers_per_hour": "43351.988178604",
                "miles_per_hour": "26937.2395435331"
            },
            "miss_distance": {
                "astronomical": "0.3275353782",
                "lunar": "127.4112621198",
                "kilometers": "48998594.928364434",
                "miles": "30446315.0740958292"
            },
            "orbiting_body": "Earth"
        }
    ],
    "orbital_data": {
        "orbit_id": "7",
        "orbit_determination_date": "2017-04-06 09:04:06",
        "first_observation_date": "2008-03-06",
        "last_observation_date": "2008-03-11",
        "data_arc_in_days": 5,
        "observations_used": 23,
        "orbit_uncertainty": "9",
        "minimum_orbit_intersection": ".311515",
        "jupiter_tisserand_invariant": "3.837",
        "epoch_osculation": "2454533.5",
        "eccentricity": ".3576848843817418",
        "semi_major_axis": "1.849224788198751",
        "inclination": "23.1867255319349",
        "ascending_node_longitude": "353.8385278122772",
        "orbital_period": "918.5080912703426",
        "perihelion_distance": "1.18778503363603",
        "perihelion_argument": "120.8860514423928",
        "aphelion_distance": "2.510664542761472",
        "perihelion_time": "2454468.689742849085",
        "mean_anomaly": "25.40172786290919",
        "mean_motion": ".3919399332695067",
        "equinox": "J2000",
        "orbit_class": {
            "orbit_class_type": "AMO",
            "orbit_class_description": "Near-Earth asteroid orbits similar to that of 1221 Amor",
            "orbit_class_range": "1.017 AU < q (perihelion) < 1.3 AU"
        }
    },
    "is_sentry_object": false
}